IRIDIUM 155             
1 43573U 18061E   19115.41966581  .00000093  00000-0  26057-4 0  9991
2 43573  86.3972  67.3515 0001576  97.9615 262.1760 14.34216785 39302
IRIDIUM 154             
1 43574U 18061F   19115.54017666  .00000030  00000-0  35791-5 0  9994
2 43574  86.3976  67.3114 0002482  79.7804 280.3671 14.34219200 39361
IRIDIUM 163             
1 43575U 18061G   19115.38160367  .00000083  00000-0  22480-4 0  9992
2 43575  86.3973  67.3720 0002946  94.9933 265.1599 14.34218601 39318
IRIDIUM 156             
1 43576U 18061H   19115.35622869  .00000087  00000-0  23856-4 0  9992
2 43576  86.3974  67.3869 0002282  97.7960 262.3495 14.34219933 39298
IRIDIUM 164             
1 43577U 18061J   19115.40696518  .00000088  00000-0  24510-4 0  9990
2 43577  86.3975  67.3668 0002483  84.4996 275.6482 14.34214901 39352
IRIDIUM 159             
1 43578U 18061K   19115.37526690  .00000086  00000-0  23580-4 0  9994
2 43578  86.3973  67.3713 0002354  82.0288 278.1175 14.34217057 39315
IRIDIUM 180             
1 43922U 19002A   19115.23521743  .00000071  00000-0  18398-4 0  9997
2 43922  86.4007   4.2717 0003405  73.9475 286.2096 14.34219561 14942
IRIDIUM 176             
1 43923U 19002B   19115.19898794  .00000147  00000-0  19385-4 0  9997
2 43923  86.6141   4.3033 0002447  93.3302 266.8195 14.72257604 15246
IRIDIUM 168             
1 43924U 19002C   19115.22887970  .00000072  00000-0  18686-4 0  9996
2 43924  86.4009   4.2777 0002395  78.3426 281.8038 14.34217008 14888
IRIDIUM 173             
1 43925U 19002D   19115.21619948  .00000068  00000-0  17121-4 0  9992
2 43925  86.4007   4.2779 0002309  82.5417 277.6041 14.34216169 14874
IRIDIUM 169             
1 43926U 19002E   19115.45048092  .00000048  00000-0  95621-5 0  9995
2 43926  87.4086  13.2338 0000969 341.4689  18.6475 14.38613602 15021
IRIDIUM 172             
1 43927U 19002F   19115.20984143  .00000078  00000-0  20665-4 0  9993
2 43927  86.4007   4.2803 0002482  80.4288 279.7188 14.34219590 14875
IRIDIUM 175             
1 43928U 19002G   19115.19285974  .00000141  00000-0  18454-4 0  9992
2 43928  86.6125   4.2804 0001304  71.5999 288.5360 14.72246536 15235
IRIDIUM 171             
1 43929U 19002H   19115.19082768  .00000070  00000-0  17886-4 0  9998
2 43929  86.4016   4.3045 0002348  78.9970 281.1489 14.34218268 14868
IRIDIUM 170             
1 43930U 19002J   19115.20515702  .00000153  00000-0  20323-4 0  9993
2 43930  86.6140   4.3085 0001980  95.6135 264.5307 14.72257858 15252
IRIDIUM 167             
1 43931U 19002K   19115.18448627  .00000072  00000-0  18607-4 0  9994
2 43931  86.4007   4.2904 0003231  73.0010 287.1539 14.34217299 14862
